start=new Date('2022-08-30T00:00:00.000Z').valueOf();
sats=[{"INCLINATION":"53.0541","FILE":"3551093","CENTER_NAME":"EARTH","EPHEMERIS_TYPE":"0","MEAN_ELEMENT_THEORY":"SGP4","REF_FRAME":"TEME","ELEMENT_SET_NO":"999","SITE":"AFETR","DECAY_DATE":null,"MEAN_MOTION":"15.06395909","TLE_LINE1":"1 47912U 21021BE  22241.55806347  .00000063  00000-0  23158-4 0  9990","GP_ID":"211286837","ECCENTRICITY":"0.00013990","TLE_LINE2":"2 47912  53.0541 294.2666 0001399  67.9174 292.1963 15.06395909 81888","RCS_SIZE":"LARGE","OBJECT_NAME":"STARLINK-2372","ARG_OF_PERICENTER":"67.9174","MEAN_ANOMALY":"292.1963","NORAD_CAT_ID":"47912","OBJECT_TYPE":"PAYLOAD","EPOCH":"2022-08-29T13:23:36.683808","LAUNCH_DATE":"2021-03-14","RA_OF_ASC_NODE":"294.2666","MEAN_MOTION_DDOT":"0.0000000000000","OBJECT_ID":"2021-021BE","PERIAPSIS":"546.257","SEMIMAJOR_AXIS":"6925.361","MEAN_MOTION_DOT":"0.00000063","BSTAR":"0.00002315800000","REV_AT_EPOCH":"8188","TIME_SYSTEM":"UTC","PERIOD":"95.592","COUNTRY_CODE":"US","APOAPSIS":"548.195","CLASSIFICATION_TYPE":"U"},{"FILE":"3551093","INCLINATION":"53.0546","TLE_LINE1":"1 47913U 21021BF  22241.56551884 -.00001337  00000-0 -70915-4 0  9995","DECAY_DATE":null,"MEAN_MOTION":"15.06393712","SITE":"AFETR","ELEMENT_SET_NO":"999","MEAN_ELEMENT_THEORY":"SGP4","REF_FRAME":"TEME","EPHEMERIS_TYPE":"0","CENTER_NAME":"EARTH","TLE_LINE2":"2 47913  53.0546 304.7162 0001340  81.9653 278.1488 15.06393712 81905","ECCENTRICITY":"0.00013400","GP_ID":"211286588","MEAN_ANOMALY":"278.1488","ARG_OF_PERICENTER":"81.9653","OBJECT_NAME":"STARLINK-2374","RCS_SIZE":"LARGE","MEAN_MOTION_DDOT":"0.0000000000000","LAUNCH_DATE":"2021-03-14","RA_OF_ASC_NODE":"304.7162","EPOCH":"2022-08-29T13:34:20.827776","NORAD_CAT_ID":"47913","OBJECT_TYPE":"PAYLOAD","BSTAR":"-0.00007091500000","REV_AT_EPOCH":"8190","MEAN_MOTION_DOT":"-0.00001337","SEMIMAJOR_AXIS":"6925.368","PERIAPSIS":"546.305","OBJECT_ID":"2021-021BF","COUNTRY_CODE":"US","PERIOD":"95.593","TIME_SYSTEM":"UTC","CLASSIFICATION_TYPE":"U","APOAPSIS":"548.161"},{"ECCENTRICITY":"0.00015160","GP_ID":"211285336","TLE_LINE2":"2 47914  53.0542 304.1645 0001516  72.9014 287.2141 15.06394218 81907","RCS_SIZE":"LARGE","MEAN_ANOMALY":"287.2141","ARG_OF_PERICENTER":"72.9014","OBJECT_NAME":"STARLINK-2375","INCLINATION":"53.0542","FILE":"3551093","CENTER_NAME":"EARTH","EPHEMERIS_TYPE":"0","ELEMENT_SET_NO":"999","MEAN_ELEMENT_THEORY":"SGP4","REF_FRAME":"TEME","SITE":"AFETR","TLE_LINE1":"1 47914U 21021BG  22241.58388836 -.00000030  00000-0  16892-4 0  9995","DECAY_DATE":null,"MEAN_MOTION":"15.06394218","TIME_SYSTEM":"UTC","PERIOD":"95.593","COUNTRY_CODE":"US","APOAPSIS":"548.281","CLASSIFICATION_TYPE":"U","NORAD_CAT_ID":"47914","OBJECT_TYPE":"PAYLOAD","EPOCH":"2022-08-29T14:00:47.954304","LAUNCH_DATE":"2021-03-14","RA_OF_ASC_NODE":"304.1645","MEAN_MOTION_DDOT":"0.0000000000000","OBJECT_ID":"2021-021BG","SEMIMAJOR_AXIS":"6925.366","PERIAPSIS":"546.181","BSTAR":"0.00001689200000","REV_AT_EPOCH":"8190","MEAN_MOTION_DOT":"-0.00000030"},{"CLASSIFICATION_TYPE":"U","APOAPSIS":"548.145","COUNTRY_CODE":"US","PERIOD":"95.593","TIME_SYSTEM":"UTC","REV_AT_EPOCH":"8198","BSTAR":"0.00002840800000","MEAN_MOTION_DOT":"0.00000142","SEMIMAJOR_AXIS":"6925.370","PERIAPSIS":"546.325","OBJECT_ID":"2021-021BH","MEAN_MOTION_DDOT":"0.0000000000000","RA_OF_ASC_NODE":"299.1560","LAUNCH_DATE":"2021-03-14","EPOCH":"2022-08-29T13:58:48.082944","NORAD_CAT_ID":"47915","OBJECT_TYPE":"PAYLOAD","ARG_OF_PERICENTER":"86.9950","MEAN_ANOMALY":"273.1189","OBJECT_NAME":"STARLINK-2376","RCS_SIZE":"LARGE","TLE_LINE2":"2 47915  53.0534 299.1560 0001314  86.9950 273.1189 15.06393032 81985","GP_ID":"211286086","ECCENTRICITY":"0.00013140","TLE_LINE1":"1 47915U 21021BH  22241.58250096  .00000142  00000-0  28408-4 0  9991","MEAN_MOTION":"15.06393032","DECAY_DATE":null,"SITE":"AFETR","ELEMENT_SET_NO":"999","MEAN_ELEMENT_THEORY":"SGP4","REF_FRAME":"TEME","EPHEMERIS_TYPE":"0","CENTER_NAME":"EARTH","FILE":"3551093","INCLINATION":"53.0534"},{"TLE_LINE2":"2 47916  53.0541 285.1817 0001126  74.5021 285.6093 15.06393864 82130","GP_ID":"211253963","ECCENTRICITY":"0.00011260","ARG_OF_PERICENTER":"74.5021","MEAN_ANOMALY":"285.6093","OBJECT_NAME":"STARLINK-2378","RCS_SIZE":"LARGE","FILE":"3550737","INCLINATION":"53.0541","TLE_LINE1":"1 47916U 21021BJ  22241.35720127 -.00000162  00000-0  80429-5 0  9999","MEAN_MOTION":"15.06393864","DECAY_DATE":null,"SITE":"AFETR","ELEMENT_SET_NO":"999","MEAN_ELEMENT_THEORY":"SGP4","REF_FRAME":"TEME","EPHEMERIS_TYPE":"0","CENTER_NAME":"EARTH","COUNTRY_CODE":"US","PERIOD":"95.593","TIME_SYSTEM":"UTC","CLASSIFICATION_TYPE":"U","APOAPSIS":"548.012","MEAN_MOTION_DDOT":"0.0000000000000","LAUNCH_DATE":"2021-03-14","RA_OF_ASC_NODE":"285.1817","EPOCH":"2022-08-29T08:34:22.189728","OBJECT_TYPE":"PAYLOAD","NORAD_CAT_ID":"47916","BSTAR":"0.00000804290000","REV_AT_EPOCH":"8213","MEAN_MOTION_DOT":"-0.00000162","SEMIMAJOR_AXIS":"6925.367","PERIAPSIS":"546.453","OBJECT_ID":"2021-021BJ"},{"TLE_LINE2":"2 47917  53.0549 294.2431 0001402  88.9323 271.1827 15.06394724 82011","ECCENTRICITY":"0.00014020","GP_ID":"211287088","RCS_SIZE":"LARGE","ARG_OF_PERICENTER":"88.9323","MEAN_ANOMALY":"271.1827","OBJECT_NAME":"STARLINK-2397","FILE":"3551093","INCLINATION":"53.0549","ELEMENT_SET_NO":"999","MEAN_ELEMENT_THEORY":"SGP4","REF_FRAME":"TEME","EPHEMERIS_TYPE":"0","CENTER_NAME":"EARTH","TLE_LINE1":"1 47917U 21021BK  22241.56268753 -.00000089  00000-0  12945-4 0  9990","MEAN_MOTION":"15.06394724","DECAY_DATE":null,"SITE":"AFETR","TIME_SYSTEM":"UTC","COUNTRY_CODE":"US","PERIOD":"95.592","APOAPSIS":"548.201","CLASSIFICATION_TYPE":"U","NORAD_CAT_ID":"47917","OBJECT_TYPE":"PAYLOAD","MEAN_MOTION_DDOT":"0.0000000000000","RA_OF_ASC_NODE":"294.2431","LAUNCH_DATE":"2021-03-14","EPOCH":"2022-08-29T13:30:16.202592","OBJECT_ID":"2021-021BK","REV_AT_EPOCH":"8201","BSTAR":"0.00001294500000","MEAN_MOTION_DOT":"-0.00000089","SEMIMAJOR_AXIS":"6925.365","PERIAPSIS":"546.259"},{"RCS_SIZE":"LARGE","OBJECT_NAME":"STARLINK-2398","MEAN_ANOMALY":"287.1977","ARG_OF_PERICENTER":"72.9154","GP_ID":"211285836","ECCENTRICITY":"0.00013020","TLE_LINE2":"2 47918  53.0546 294.2236 0001302  72.9154 287.1977 15.06400703 82047","EPHEMERIS_TYPE":"0","CENTER_NAME":"EARTH","REF_FRAME":"TEME","MEAN_ELEMENT_THEORY":"SGP4","ELEMENT_SET_NO":"999","SITE":"AFETR","MEAN_MOTION":"15.06400703","DECAY_DATE":null,"TLE_LINE1":"1 47918U 21021BL  22241.57006265 -.00001290  00000-0 -67745-4 0  9994","INCLINATION":"53.0546","FILE":"3551093","APOAPSIS":"548.113","CLASSIFICATION_TYPE":"U","TIME_SYSTEM":"UTC","PERIOD":"95.592","COUNTRY_CODE":"US","OBJECT_ID":"2021-021BL","PERIAPSIS":"546.310","SEMIMAJOR_AXIS":"6925.346","MEAN_MOTION_DOT":"-0.00001290","REV_AT_EPOCH":"8204","BSTAR":"-0.00006774500000","OBJECT_TYPE":"PAYLOAD","NORAD_CAT_ID":"47918","LAUNCH_DATE":"2021-03-14","EPOCH":"2022-08-29T13:40:53.412960","RA_OF_ASC_NODE":"294.2236","MEAN_MOTION_DDOT":"0.0000000000000"},{"TIME_SYSTEM":"UTC","PERIOD":"95.593","COUNTRY_CODE":"US","APOAPSIS":"548.204","CLASSIFICATION_TYPE":"U","OBJECT_TYPE":"PAYLOAD","NORAD_CAT_ID":"47919","LAUNCH_DATE":"2021-03-14","EPOCH":"2022-08-29T21:16:02.146080","RA_OF_ASC_NODE":"302.7932","MEAN_MOTION_DDOT":"0.0000000000000","OBJECT_ID":"2021-021BM","SEMIMAJOR_AXIS":"6925.366","PERIAPSIS":"546.258","BSTAR":"0.00005952900000","REV_AT_EPOCH":"8193","MEAN_MOTION_DOT":"0.00000605","GP_ID":"211285587","ECCENTRICITY":"0.00014050","TLE_LINE2":"2 47919  53.0558 302.7932 0001405  72.0390 288.0752 15.06394323 81934","RCS_SIZE":"LARGE","MEAN_ANOMALY":"288.0752","ARG_OF_PERICENTER":"72.0390","OBJECT_NAME":"STARLINK-2405","INCLINATION":"53.0558","FILE":"3551093","EPHEMERIS_TYPE":"0","CENTER_NAME":"EARTH","ELEMENT_SET_NO":"999","REF_FRAME":"TEME","MEAN_ELEMENT_THEORY":"SGP4","SITE":"AFETR","TLE_LINE1":"1 47919U 21021BM  22241.88613595  .00000605  00000-0  59529-4 0  9997","DECAY_DATE":null,"MEAN_MOTION":"15.06394323"},{"LAUNCH_DATE":"2021-03-24","RA_OF_ASC_NODE":"348.6607","EPOCH":"2022-08-29T16:42:01.025280","MEAN_MOTION_DDOT":"0.0000000000000","NORAD_CAT_ID":"47977","OBJECT_TYPE":"PAYLOAD","SEMIMAJOR_AXIS":"6925.340","PERIAPSIS":"546.374","REV_AT_EPOCH":"8057","BSTAR":"-0.00001361700000","MEAN_MOTION_DOT":"-0.00000484","OBJECT_ID":"2021-024A","PERIOD":"95.592","COUNTRY_CODE":"US","TIME_SYSTEM":"UTC","CLASSIFICATION_TYPE":"U","APOAPSIS":"548.036","INCLINATION":"53.0557","FILE":"3551093","SITE":"AFETR","TLE_LINE1":"1 47977U 21024A   22241.69584520 -.00000484  00000-0 -13617-4 0  9993","MEAN_MOTION":"15.06402727","DECAY_DATE":null,"CENTER_NAME":"EARTH","EPHEMERIS_TYPE":"0","ELEMENT_SET_NO":"999","REF_FRAME":"TEME","MEAN_ELEMENT_THEORY":"SGP4","ECCENTRICITY":"0.00012000","GP_ID":"211286344","TLE_LINE2":"2 47977  53.0557 348.6607 0001200  97.9676 262.1449 15.06402727 80574","MEAN_ANOMALY":"262.1449","ARG_OF_PERICENTER":"97.9676","OBJECT_NAME":"STARLINK-2087","RCS_SIZE":"LARGE"},{"RCS_SIZE":"LARGE","OBJECT_NAME":"STARLINK-1647","MEAN_ANOMALY":"279.8023","ARG_OF_PERICENTER":"80.3113","TLE_LINE2":"2 47978  53.0565 358.5483 0001305  80.3113 279.8023 15.06392242 80432","GP_ID":"211287094","ECCENTRICITY":"0.00013050","REF_FRAME":"TEME","MEAN_ELEMENT_THEORY":"SGP4","ELEMENT_SET_NO":"999","EPHEMERIS_TYPE":"0","CENTER_NAME":"EARTH","DECAY_DATE":null,"MEAN_MOTION":"15.06392242","TLE_LINE1":"1 47978U 21024B   22241.71704682 -.00000522  00000-0 -16160-4 0  9999","SITE":"AFETR","FILE":"3551093","INCLINATION":"53.0565","APOAPSIS":"548.141","CLASSIFICATION_TYPE":"U","TIME_SYSTEM":"UTC","COUNTRY_CODE":"US","PERIOD":"95.593","OBJECT_ID":"2021-024B","MEAN_MOTION_DOT":"-0.00000522","REV_AT_EPOCH":"8043","BSTAR":"-0.00001616000000","PERIAPSIS":"546.334","SEMIMAJOR_AXIS":"6925.372","OBJECT_TYPE":"PAYLOAD","NORAD_CAT_ID":"47978","MEAN_MOTION_DDOT":"0.0000000000000","LAUNCH_DATE":"2021-03-24","RA_OF_ASC_NODE":"358.5483","EPOCH":"2022-08-29T17:12:32.845248"}];
